P/2023 X3 (PANSTARRS),e,4.4834,62.0127,40.8222,4.245755,0.1126605,0.28630912,12.7346,08/13.0/2024,2000,g 15.5,4.0
# From MPEC 2024-JU4
C/2023 X4 (Hogan),e,11.5948,28.7659,100.5489,9.911606,0.0315855,0.63093379,2.5331,08/13.0/2024,2000,g 12.0,4.0
# From MPEC 2024-DA2
C/2023 X7 (PANSTARRS),h,05/14.9145/2025,69.0556,119.2077,354.3530,1.002412,4.820851,2000,9.0,4.0
# From MPEC 2024-JU4
P/2023 Y1 (Gibbs),e,6.3841,78.8562,51.4473,3.748867,0.1357857,0.44520085,34.9248,08/13.0/2024,2000,g 17.0,4.0
# From MPEC 2024-F34
P/2023 Y2 (Gibbs),e,6.9928,79.2287,16.8418,3.745486,0.1359696,0.39225353,50.1794,08/13.0/2024,2000,g 15.5,4.0
# From MPEC 2024-JU4
C/2024 A1 (ATLAS),h,06/13.6966/2025,94.4466,112.1413,353.3038,1.001372,3.875561,2000,7.0,4.0
# From MPEC 2024-JU4
C/2024 A2 (ATLAS),e,119.1123,78.1667,295.5836,32.40433,0.0053432,0.94193233,0.5668,08/13.0/2024,2000,g 12.5,4.0
# From MPEC 2024-D33
C/2024 B1 (Lemmon),h,10/07.7055/2024,70.9046,79.1876,66.2099,1.000841,1.633647,2000,13.0,4.0
# From MPEC 2024-GJ3
C/2024 B2 (Lemmon),e,99.8401,294.3783,130.3289,4737,0.0000030,0.99913937,0.0000,10/06.0743/2023,2000,g 11.5,4.0
# From MPEC 2024-M41
C/2024 C1 (PANSTARRS),e,14.2268,83.8107,94.4657,10.56330,0.0287081,0.58223904,359.4869,08/13.0/2024,2000,g 11.5,4.0
# From MPEC 2024-JU4
C/2024 C2 (PANSTARRS),e,27.2844,66.4418,87.5361,16.19379,0.0151245,0.44476173,356.8341,08/13.0/2024,2000,g  6.0,4.0
# From MPEC 2024-GJ3
C/2024 C3 (PANSTARRS),e,22.4629,359.7091,159.6492,11.65015,0.0247860,0.42381833,6.9136,08/13.0/2024,2000,g  9.0,4.0
# From MPEC 2024-P23
C/2024 C4 (ATLAS),e,79.2865,220.6842,321.5193,83.95006,0.0012814,0.98247558,0.0000,01/30.1955/2024,2000,g 14.5,4.0
# From MPEC 2024-EG1
A/2024 D1,e,132.4511,179.6695,125.7374,1781,0.0000131,0.99623674,0.0000,12/05.0222/2027,2000,g 11.0,2.0
# From MPEC 2024-PC5
C/2024 E1 (Wierzchos),h,01/20.7759/2026,75.2348,108.1038,243.6544,1.000002,0.565385,2000,7.0,4.0
# From MPEC 2024-JU4
C/2024 E2 (Bok),e,155.6484,135.6511,358.0550,51.72919,0.0026491,0.85129633,0.7786,08/13.0/2024,2000,g  8.0,4.0
# From MPEC 2024-JU4
P/2024 F1 (PANSTARRS),e,7.0054,251.5420,229.5471,3.442917,0.1542817,0.45986583,45.1026,08/13.0/2024,2000,g 16.0,4.0
# From MPEC 2024-PC5
C/2024 F2 (PANSTARRS),e,13.7408,138.9484,112.9104,9.950117,0.0314023,0.60117920,0.4662,08/13.0/2024,2000,g 11.0,4.0
# From MPEC 2024-P23
P/2024 FG9 (Nanshan-Hahn),e,1.7312,253.0444,245.9119,3.256371,0.1677271,0.50976659,14.1985,08/13.0/2024,2000,g 14.0,4.0
# From MPEC 2024-PC5
C/2024 G1 (Wierzchos),e,95.4008,30.5995,128.2258,121.4138,0.0007367,0.96762956,359.9491,08/13.0/2024,2000,g 10.0,4.0
# From MPEC 2024-JU4
C/2024 G2 (ATLAS),e,122.1321,171.3936,328.7907,893.6364,0.0000369,0.99401810,0.0000,06/13.7862/2025,2000,g  7.0,4.0
# From MPEC 2024-PC5
C/2024 G3 (ATLAS),h,01/13.4283/2025,116.8480,220.3367,108.1263,1.000009,0.093509,2000,9.0,4.0
# From MPEC 2024-P23
C/2024 G4 (PANSTARRS),e,33.0276,152.9990,131.4301,3077,0.0000058,0.99840792,0.0000,03/21.7688/2026,2000,g  8.0,4.0
# From MPEC 2024-JC6
C/2024 G5 (Leonard),e,50.3891,316.3987,209.5620,541.0193,0.0000783,0.99454205,0.0000,09/06.9979/2024,2000,g 13.0,4.0
# From MPEC 2024-P23
C/2024 G6 (ATLAS),h,02/20.8435/2026,120.4678,250.9465,23.4613,1.003602,6.428900,2000,5.5,4.0
# From MPEC 2024-P23
C/2024 G7 (ATLAS),h,02/10.2013/2025,131.5187,191.9471,289.6533,1.001532,6.027865,2000,7.0,4.0
# From MPEC 2024-JU4
P/2024 J1 (PANSTARRS),e,13.1579,321.9522,200.3402,3.807883,0.1326413,0.30750871,36.5850,08/13.0/2024,2000,g 14.5,4.0
# From MPEC 2024-PC5
C/2024 J2 (Wierzchos),e,79.2878,189.0533,143.1608,155.8731,0.0005065,0.98838893,0.0000,03/19.5973/2025,2000,g 11.5,4.0
# From MPEC 2024-PC5
C/2024 J3 (ATLAS),h,11/25.2271/2026,75.6262,285.9642,74.0945,1.000995,3.864350,2000,5.0,4.0
# From MPEC 2024-PC5
C/2024 J4 (Lemmon),e,117.5355,19.2941,127.8665,4428,0.0000033,0.99871383,0.0000,04/26.1537/2025,2000,g  8.0,4.0
# From MPEC 2024-LB4
P/2024 K1 (PANSTARRS),e,1.7861,251.6906,351.9647,6.847138,0.0550098,0.49525771,5.2736,08/13.0/2024,2000,g 13.5,4.0
# From MPEC 2024-NE4
C/2024 L1 (PANSTARRS),e,99.1721,45.1391,171.8375,11.45750,0.0254138,0.53325675,353.5554,08/13.0/2024,2000,g 10.0,4.0
# From MPEC 2024-P23
C/2024 L2 (PANSTARRS),e,139.4862,266.2871,345.6536,456.0320,0.0001012,0.98174262,0.0000,06/13.4332/2025,2000,g  7.5,3.2
# From MPEC 2024-NA5
C/2024 L3 (PANSTARRS),h,11/25.9400/2023,111.5905,294.9760,59.2087,1.002304,6.859356,2000,9.0,4.0
# From MPEC 2024-P23
P/2024 L4 (Rankin),e,10.0463,139.7765,53.7108,2.228610,0.2962462,0.69838630,35.7594,08/13.0/2024,2000,g 21.5,4.0
# From MPEC 2024-PC5
C/2024 L5 (ATLAS),h,03/11.1277/2025,166.5707,139.1420,290.6532,1.034573,3.427418,2000,9.0,4.0
# From MPEC 2024-PC5
C/2024 M1 (ATLAS),e,73.7101,76.2154,345.6050,29.84189,0.0060459,0.94292039,359.4012,08/13.0/2024,2000,g 12.0,4.0
# From MPEC 2024-NE4
C/2024 N1 (PANSTARRS),h,10/18.5476/2025,88.7766,323.0147,91.2004,1.002097,4.400282,2000,10.5,4.0
# From MPEC 2024-P23
P/2024 N2 (PANSTARRS),e,7.7898,245.0460,48.8838,3.795733,0.1332786,0.35707629,9.8556,08/13.0/2024,2000,g 16.0,4.0
# From MPEC 2024-PC5
C/2024 N3 (Sarneczky),h,04/11.2975/2025,88.7294,82.6092,86.8659,1.000772,5.014782,2000,8.0,4.0
# From MPEC 2024-PC5
C/2024 N4 (Sarneczky),h,01/11.5896/2025,49.7572,339.7472,116.8377,1.014721,5.398845,2000,7.5,4.0
# From MPEC 2024-PC5
P/2024 N6 (NEAT-PANSTARRS),e,11.3648,324.0758,1.4570,3.733391,0.1366309,0.55057551,11.7265,08/13.0/2024,2000,g 16.5,4.0
# From MPEC 2024-PC5
C/2024 O1 (PANSTARRS),h,01/29.0664/2023,59.0713,303.3340,349.9290,1.001439,6.608280,2000,8.5,4.0
# From MPEC 2024-PC5
P/2024 O2 (PANSTARRS),e,28.9774,6.8010,310.8881,7.381649,0.0491444,0.49899991,5.6144,08/13.0/2024,2000,g 12.0,4.0
# From  98, 1083
1P/Halley,e,162.2071,59.6953,112.6078,17.86682,0.0130507,0.96701853,183.2528,08/13.0/2024,2000,g  4.0,6.0
# From MPEC 2024-P23
2P/Encke,e,11.3389,334.0151,187.2842,2.218397,0.2982944,0.84697511,88.1365,08/13.0/2024,2000,g 11.5,6.0
# From  76, 1135
3D/Biela,e,7.8876,276.1865,192.2880,3.539318,0.1480215,0.76748839,313.0453,08/13.0/2024,2000,g 11.0,6.0
# From  76, 1135
3D-A/Biela,e,7.2154,276.6864,192.1209,3.550138,0.1473453,0.76712012,343.6265,08/13.0/2024,2000,g 11.0,6.0
# From  76, 1135
3D-B/Biela,e,7.8797,276.2012,192.2490,3.540068,0.1479744,0.76778636,312.7826,08/13.0/2024,2000,g 11.0,6.0
# From MPEC 2023-FK0
4P/Faye,e,8.0068,192.9216,207.1111,3.828954,0.1315479,0.57665706,140.6092,08/13.0/2024,2000,g  8.0,6.0
# From  27, 116
5D/Brorsen,e,18.6275,94.9055,20.3020,3.158274,0.1756020,0.83774944,84.9627,08/13.0/2024,2000,g 10.5,6.0
# From MPEC 2022-WD2
6P/d'Arrest,e,19.5012,138.9501,178.0781,3.497514,0.1506832,0.61197126,159.8702,08/13.0/2024,2000,g  7.5,16.0
# From MPEC 2023-A50
7P/Pons-Winnecke,e,22.4463,93.2753,172.4608,3.404706,0.1568862,0.64009589,184.2002,08/13.0/2024,2000,g 10.0,6.0
# From MPEC 2022-HC2
8P/Tuttle,e,54.9730,270.1750,207.4722,5.704231,0.0723450,0.82053372,78.1954,08/13.0/2024,2000,g  8.0,8.0
# From MPEC 2024-AF0
9P/Tempel,e,10.9599,67.3873,183.7611,3.235503,0.1693524,0.49518139,150.3581,08/13.0/2024,2000,g  5.5,10.0
# From MPEC 2024-GJ3
10P/Tempel,e,12.0287,117.8066,195.5174,3.062959,0.1838622,0.53750144,227.7710,08/13.0/2024,2000,g  5.0,10.0
# From MPEC 2023-A50
11P/Tempel-Swift-LINEAR,e,14.4348,238.8651,168.0337,3.283586,0.1656462,0.57756475,224.3861,08/13.0/2024,2000,g 17.0,4.0
# From MPEC 2024-P23
12P/Pons-Brooks,e,74.1917,255.8556,198.9904,17.20532,0.0138105,0.95461767,1.5727,08/13.0/2024,2000,g  5.0,6.0
# From MPEC 2024-PC5
13P/Olbers,e,44.6658,85.8475,64.4164,16.84992,0.0142498,0.93023912,0.6263,08/13.0/2024,2000,g  5.0,6.0
# From MPEC 2024-LE0
14P/Wolf,e,27.9229,202.0358,159.1764,4.257077,0.1122114,0.35688054,273.9536,08/13.0/2024,2000,g  5.5,12.0
# From MPEC 2022-ED3
15P/Finlay,e,6.7918,13.7423,347.8751,3.510119,0.1498723,0.71649552,168.8564,08/13.0/2024,2000,g 12.0,4.0
# From MPEC 2022-X67
16P/Brooks,e,3.0103,138.8452,245.3455,3.661115,0.1406967,0.48602966,170.5933,08/13.0/2024,2000,g  7.5,10.0
# From MPEC 2023-J29
17P/Holmes,e,19.0132,326.6216,24.6216,3.640330,0.1419035,0.42674643,180.3027,08/13.0/2024,2000,g 10.0,6.0
# From  19, 80
18D/Perrine-Mrkos,e,17.656,158.469,238.233,3.88254,0.128834,0.5895664,357.911,08/13.0/2024,2000,g  9.0,4.0
# From MPEC 2024-JU4
19P/Borrelly,e,29.3167,74.2150,351.9868,3.607896,0.1438212,0.63789719,132.7277,08/13.0/2024,2000,g  4.5,10.0
# From MPEC 2024-LE0
21P/Giacobini-Zinner,e,32.0510,195.3361,172.9233,3.492775,0.1509900,0.71111884,326.1255,08/13.0/2024,2000,g  9.0,6.0
# From MPEC 2024-L77
22P/Kopff,e,4.7623,120.4902,162.9030,3.427849,0.1553000,0.55217928,136.3453,08/13.0/2024,2000,g  3.0,10.4
# From MPC 14747
23P/Brorsen-Metcalf,e,19.3949,311.4360,129.7311,16.93969,0.0141366,0.97255530,0.0000,05/20.2214/2059,2000,g 10.0,6.0
# From MPC110085
24P/Schaumasse,e,11.5060,78.3730,58.3954,4.055963,0.1206600,0.70803631,298.0560,08/13.0/2024,2000,g  6.5,14.0
# From NK 378
25D/Neujmin 2,e,2.8072,279.9939,244.7771,3.223529,0.1702969,0.55086522,313.7903,08/13.0/2024,2000,g 12.5,6.0
# From MPEC 2024-PC5
26P/Grigg-Skjellerup,e,22.4331,211.5385,2.1387,3.015471,0.1882225,0.64057979,43.6048,08/13.0/2024,2000,g 12.0,16.0
# From MPC 78188
27P/Crommelin,e,29.4390,250.7076,195.8328,9.179248,0.0354400,0.91955676,168.7924,08/13.0/2024,2000,g 12.0,8.0
# From MPEC 2024-GJ3
28P/Neujmin,e,14.3007,346.3857,347.4740,6.982820,0.0534143,0.77304042,66.8166,08/13.0/2024,2000,g  8.5,6.0
# From MPEC 2024-LE0
29P/Schwassmann-Wachmann,e,9.3578,312.4061,52.0956,6.054318,0.0661616,0.04384910,127.5592,08/13.0/2024,2000,g  4.0,4.0
# From MPEC 2024-GJ3
30P/Reinmuth,e,8.0533,117.2359,9.4863,3.734268,0.1365827,0.51432498,359.4289,08/13.0/2024,2000,g  9.5,6.0
# From MPEC 2023-RF3
31P/Schwassmann-Wachmann,e,4.5496,114.1119,17.8319,4.232722,0.1131812,0.19304243,211.2939,08/13.0/2024,2000,g  5.0,8.0
# From MPEC 2024-L77
32P/ComasSola,e,9.9207,54.5298,54.6730,4.551934,0.1014869,0.55521724,11.6089,08/13.0/2024,2000,g  6.5,8.0
# From MPEC 2023-J29
